{"type": "FeatureCollection", "features": [ {"type": "Feature", "properties": {"norad_id": 66489, "name": "STARLINK-35696", "group": "last-30-days", "lat": 8.245220690609901, "lon": 159.62960660021568, "alt_km": 414.63794787673214, "timestamp": "2025-12-08T08:58:59.556481+00:00", "meta": {"OBJECT_NAME": "STARLINK-35696", "OBJECT_ID": "2025-263E", "EPOCH": "2025-12-07T22:00:03.000096", "MEAN_MOTION": 15.51845532, "ECCENTRICITY": 0.00014516, "INCLINATION": 43.0002, "RA_OF_ASC_NODE": 153.3625, "ARG_OF_PERICENTER": 278.5846, "MEAN_ANOMALY": 55.4633, "EPHEMERIS_TYPE": 0, "CLASSIFICATION_TYPE": "U", "NORAD_CAT_ID": 66489, "ELEMENT_SET_NO": 999, "REV_AT_EPOCH": 486, "BSTAR": -0.029720591, "MEAN_MOTION_DOT": -0.01637547, "MEAN_MOTION_DDOT": 0}, "tle": {"line1": "1 66489U 25263E   25341.91670139 -.01637547  00000+0 -29721-1 0  9998", "line2": "2 66489  43.0002 153.3625 0001451 278.5846  55.4633 15.51845532  4863"}}, "geometry": {"type": "Point", "coordinates": [159.62960660021568, 8.245220690609901]}}, {"type": "Feature", "properties": {"norad_id": 66490, "name": "STARLINK-35693", "group": "last-30-days", "lat": 9.533059290502786, "lon": 161.06130757605678, "alt_km": 414.49821579822583, "timestamp": "2025-12-08T08:58:59.556493+00:00", "meta": {"OBJECT_NAME": "STARLINK-35693", "OBJECT_ID": "2025-263F", "EPOCH": "2025-12-07T22:00:03.000096", "MEAN_MOTION": 15.51847196, "ECCENTRICITY": 0.00013496, "INCLINATION": 43.0002, "RA_OF_ASC_NODE": 153.3579, "ARG_OF_PERICENTER": 277.7975, "MEAN_ANOMALY": 58.1645, "EPHEMERIS_TYPE": 0, "CLASSIFICATION_TYPE": "U", "NORAD_CAT_ID": 66490, "ELEMENT_SET_NO": 999, "REV_AT_EPOCH": 486, "BSTAR": -0.029724165, "MEAN_MOTION_DOT": -0.01637766, "MEAN_MOTION_DDOT": 0}, "tle": {"line1": "1 66490U 25263F   25341.91670139 -.01637766  00000+0 -29724-1 0  9996", "line2": "2 66490  43.0002 153.3579 0001349 277.7975  58.1645 15.51847196  4864"}}, "geometry": {"type": "Point", "coordinates": [161.06130757605678, 9.533059290502786]}}, {"type": "Feature", "properties": {"norad_id": 66491, "name": "STARLINK-35663", "group": "last-30-days", "lat": 12.092079950117208, "lon": 163.9604713919037, "alt_km": 414.1936489228492, "timestamp": "2025-12-08T08:58:59.556503+00:00", "meta": {"OBJECT_NAME": "STARLINK-35663", "OBJECT_ID": "2025-263G", "EPOCH": "2025-12-07T22:00:03.000096", "MEAN_MOTION": 15.51849834, "ECCENTRICITY": 0.00014723, "INCLINATION": 43.0001, "RA_OF_ASC_NODE": 153.348, "ARG_OF_PERICENTER": 278.6651, "MEAN_ANOMALY": 61.1303, "EPHEMERIS_TYPE": 0, "CLASSIFICATION_TYPE": "U", "NORAD_CAT_ID": 66491, "ELEMENT_SET_NO": 999, "REV_AT_EPOCH": 486, "BSTAR": -0.029844638, "MEAN_MOTION_DOT": -0.01643926, "MEAN_MOTION_DDOT": 0}, "tle": {"line1": "1 66491U 25263G   25341.91670139 -.01643926  00000+0 -29845-1 0  9996", "line2": "2 66491  43.0001 153.3480 0001472 278.6651  61.1303 15.51849834  4869"}}, "geometry": {"type": "Point", "coordinates": [163.9604713919037, 12.092079950117208]}}, {"type": "Feature", "properties": {"norad_id": 66492, "name": "STARLINK-35673", "group": "last-30-days", "lat": 13.360471116828494, "lon": 165.42999201212288, "alt_km": 414.02801840437496, "timestamp": "2025-12-08T08:58:59.556515+00:00", "meta": {"OBJECT_NAME": "STARLINK-35673", "OBJECT_ID": "2025-263H", "EPOCH": "2025-12-07T22:00:03.000096", "MEAN_MOTION": 15.51846155, "ECCENTRICITY": 0.00014698, "INCLINATION": 43.0002, "RA_OF_ASC_NODE": 153.3429, "ARG_OF_PERICENTER": 278.9723, "MEAN_ANOMALY": 62.7411, "EPHEMERIS_TYPE": 0, "CLASSIFICATION_TYPE": "U", "NORAD_CAT_ID": 66492, "ELEMENT_SET_NO": 999, "REV_AT_EPOCH": 486, "BSTAR": -0.029740923, "MEAN_MOTION_DOT": -0.01638596, "MEAN_MOTION_DDOT": 0}, "tle": {"line1": "1 66492U 25263H   25341.91670139 -.01638596  00000+0 -29741-1 0  9999", "line2": "2 66492  43.0002 153.3429 0001469 278.9723  62.7411 15.51846155  4863"}}, "geometry": {"type": "Point", "coordinates": [165.42999201212288, 13.360471116828494]}}, {"type": "Feature", "properties": {"norad_id": 66493, "name": "STARLINK-35597", "group": "last-30-days", "lat": 14.624420426765877, "lon": 166.91989577973104, "alt_km": 414.0606326380921, "timestamp": "2025-12-08T08:58:59.556525+00:00", "meta": {"OBJECT_NAME": "STARLINK-35597", "OBJECT_ID": "2025-263J", "EPOCH": "2025-12-07T22:00:03.000096", "MEAN_MOTION": 15.51846624, "ECCENTRICITY": 0.00013734, "INCLINATION": 43.0005, "RA_OF_ASC_NODE": 153.3378, "ARG_OF_PERICENTER": 268.5211, "MEAN_ANOMALY": 75.1083, "EPHEMERIS_TYPE": 0, "CLASSIFICATION_TYPE": "U", "NORAD_CAT_ID": 66493, "ELEMENT_SET_NO": 999, "REV_AT_EPOCH": 486, "BSTAR": -0.029556101, "MEAN_MOTION_DOT": -0.01629421, "MEAN_MOTION_DDOT": 0}, "tle": {"line1": "1 66493U 25263J   25341.91670139 -.01629421  00000+0 -29556-1 0  9991", "line2": "2 66493  43.0005 153.3378 0001373 268.5211  75.1083 15.51846624  4865"}}, "geometry": {"type": "Point", "coordinates": [166.91989577973104, 14.624420426765877]}}, {"type": "Feature", "properties": {"norad_id": 66494, "name": "STARLINK-35689", "group": "last-30-days", "lat": 10.818998072160143, "lon": 162.50809323010455, "alt_km": 414.63037822908973, "timestamp": "2025-12-08T08:58:59.556536+00:00", "meta": {"OBJECT_NAME": "STARLINK-35689", "OBJECT_ID": "2025-263K", "EPOCH": "2025-12-07T22:00:03.000096", "MEAN_MOTION": 15.51843763, "ECCENTRICITY": 0.00013149, "INCLINATION": 43.0003, "RA_OF_ASC_NODE": 153.353, "ARG_OF_PERICENTER": 262.6776, "MEAN_ANOMALY": 75.2004, "EPHEMERIS_TYPE": 0, "CLASSIFICATION_TYPE": "U", "NORAD_CAT_ID": 66494, "ELEMENT_SET_NO": 999, "REV_AT_EPOCH": 486, "BSTAR": -0.02944511, "MEAN_MOTION_DOT": -0.0162374, "MEAN_MOTION_DDOT": 0}, "tle": {"line1": "1 66494U 25263K   25341.91670139 -.01623740  00000+0 -29445-1 0  9997", "line2": "2 66494  43.0003 153.3530 0001314 262.6776  75.2004 15.51843763  4865"}}, "geometry": {"type": "Point", "coordinates": [162.50809323010455, 10.818998072160143]}}, {"type": "Feature", "properties": {"norad_id": 66495, "name": "STARLINK-35832", "group": "last-30-days", "lat": 15.869952048490333, "lon": 168.41738911539423, "alt_km": 413.7374011719703, "timestamp": "2025-12-08T08:58:59.556551+00:00", "meta": {"OBJECT_NAME": "STARLINK-35832", "OBJECT_ID": "2025-263L", "EPOCH": "2025-12-07T22:00:03.000096", "MEAN_MOTION": 15.51848251, "ECCENTRICITY": 0.00014606, "INCLINATION": 43.0001, "RA_OF_ASC_NODE": 153.3333, "ARG_OF_PERICENTER": 278.5225, "MEAN_ANOMALY": 67.024, "EPHEMERIS_TYPE": 0, "CLASSIFICATION_TYPE": "U", "NORAD_CAT_ID": 66495, "ELEMENT_SET_NO": 999, "REV_AT_EPOCH": 486, "BSTAR": -0.02982623, "MEAN_MOTION_DOT": -0.01642925, "MEAN_MOTION_DDOT": 0}, "tle": {"line1": "1 66495U 25263L   25341.91670139 -.01642925  00000+0 -29826-1 0  9997", "line2": "2 66495  43.0001 153.3333 0001460 278.5225  67.0240 15.51848251  4860"}}, "geometry": {"type": "Point", "coordinates": [168.41738911539423, 15.869952048490333]}}, {"type": "Feature", "properties": {"norad_id": 66496, "name": "STARLINK-35909", "group": "last-30-days", "lat": 17.114412288944095, "lon": 169.94409445679864, "alt_km": 413.7392229662164, "timestamp": "2025-12-08T08:58:59.556562+00:00", "meta": {"OBJECT_NAME": "STARLINK-35909", "OBJECT_ID": "2025-263M", "EPOCH": "2025-12-07T22:00:03.000096", "MEAN_MOTION": 15.51852068, "ECCENTRICITY": 0.00013554, "INCLINATION": 43.0006, "RA_OF_ASC_NODE": 153.3283, "ARG_OF_PERICENTER": 268.8232, "MEAN_ANOMALY": 78.6374, "EPHEMERIS_TYPE": 0, "CLASSIFICATION_TYPE": "U", "NORAD_CAT_ID": 66496, "ELEMENT_SET_NO": 999, "REV_AT_EPOCH": 486, "BSTAR": -0.029692774, "MEAN_MOTION_DOT": -0.01636474, "MEAN_MOTION_DDOT": 0}, "tle": {"line1": "1 66496U 25263M   25341.91670139 -.01636474  00000+0 -29693-1 0  9992", "line2": "2 66496  43.0006 153.3283 0001355 268.8232  78.6374 15.51852068  4860"}}, "geometry": {"type": "Point", "coordinates": [169.94409445679864, 17.114412288944095]}}, {"type": "Feature", "properties": {"norad_id": 66497, "name": "STARLINK-35899", "group": "last-30-days", "lat": 18.338257108932268, "lon": 171.4803881248168, "alt_km": 413.4542705343192, "timestamp": "2025-12-08T08:58:59.556572+00:00", "meta": {"OBJECT_NAME": "STARLINK-35899", "OBJECT_ID": "2025-263N", "EPOCH": "2025-12-07T22:00:03.000096", "MEAN_MOTION": 15.51853353, "ECCENTRICITY": 0.00015698, "INCLINATION": 43.0002, "RA_OF_ASC_NODE": 153.3231, "ARG_OF_PERICENTER": 279.0309, "MEAN_ANOMALY": 70.3487, "EPHEMERIS_TYPE": 0, "CLASSIFICATION_TYPE": "U", "NORAD_CAT_ID": 66497, "ELEMENT_SET_NO": 999, "REV_AT_EPOCH": 486, "BSTAR": -0.030019356, "MEAN_MOTION_DOT": -0.016528, "MEAN_MOTION_DDOT": 0}, "tle": {"line1": "1 66497U 25263N   25341.91670139 -.01652800  00000+0 -30019-1 0  9998", "line2": "2 66497  43.0002 153.3231 0001569 279.0309  70.3487 15.51853353  4868"}}, "geometry": {"type": "Point", "coordinates": [171.4803881248168, 18.338257108932268]}}, {"type": "Feature", "properties": {"norad_id": 66498, "name": "STARLINK-35907", "group": "last-30-days", "lat": 19.558558209170137, "lon": 173.05004866678186, "alt_km": 413.41316926506624, "timestamp": "2025-12-08T08:58:59.556582+00:00", "meta": {"OBJECT_NAME": "STARLINK-35907", "OBJECT_ID": "2025-263P", "EPOCH": "2025-12-07T22:00:03.000096", "MEAN_MOTION": 15.51849362, "ECCENTRICITY": 0.00013587, "INCLINATION": 43.0004, "RA_OF_ASC_NODE": 153.3181, "ARG_OF_PERICENTER": 269.1568, "MEAN_ANOMALY": 82.1395, "EPHEMERIS_TYPE": 0, "CLASSIFICATION_TYPE": "U", "NORAD_CAT_ID": 66498, "ELEMENT_SET_NO": 999, "REV_AT_EPOCH": 486, "BSTAR": -0.029626282, "MEAN_MOTION_DOT": -0.01633038, "MEAN_MOTION_DDOT": 0}, "tle": {"line1": "1 66498U 25263P   25341.91670139 -.01633038  00000+0 -29626-1 0  9993", "line2": "2 66498  43.0004 153.3181 0001358 269.1568  82.1395 15.51849362  4862"}}, "geometry": {"type": "Point", "coordinates": [173.05004866678186, 19.558558209170137]}}]}